FLOCK 3P-24             
1 41956U 17008J   17345.90116987  .00003288  00000-0  13910-3 0  9990
2 41956  97.4744  46.6205 0007394 288.6095  71.4339 15.23895268 45584
